{
  "links" : {
    "next" : "https://api.nasa.gov/neo/rest/v1/neo/browse?page=50&size=20&api_key=jqAGvNAwUIBu4fl9FSOjdm3V4F7hIglRzI6pdX9d",
    "prev" : "https://api.nasa.gov/neo/rest/v1/neo/browse?page=48&size=20&api_key=jqAGvNAwUIBu4fl9FSOjdm3V4F7hIglRzI6pdX9d",
    "self" : "https://api.nasa.gov/neo/rest/v1/neo/browse?page=49&size=20&api_key=jqAGvNAwUIBu4fl9FSOjdm3V4F7hIglRzI6pdX9d"
  },
  "page" : {
    "size" : 20,
    "total_elements" : 20750,
    "total_pages" : 1038,
    "number" : 49
  },
  "near_earth_objects" : [ {
    "links" : {
      "self" : "https://api.nasa.gov/neo/rest/v1/neo/3439808?api_key=jqAGvNAwUIBu4fl9FSOjdm3V4F7hIglRzI6pdX9d"
    },
    "neo_reference_id" : "3439808",
    "name" : "(2008 WE14)",
    "designation" : "2008 WE14",
    "nasa_jpl_url" : "http://ssd.jpl.nasa.gov/sbdb.cgi?sstr=3439808",
    "absolute_magnitude_h" : 25.4,
    "estimated_diameter" : {
      "kilometers" : {
        "estimated_diameter_min" : 0.022108281,
        "estimated_diameter_max" : 0.0494356193
      },
      "meters" : {
        "estimated_diameter_min" : 22.1082810359,
        "estimated_diameter_max" : 49.435619262
      },
      "miles" : {
        "estimated_diameter_min" : 0.0137374447,
        "estimated_diameter_max" : 0.0307178602
      },
      "feet" : {
        "estimated_diameter_min" : 72.5337327539,
        "estimated_diameter_max" : 162.1903570994
      }
    },
    "is_potentially_hazardous_asteroid" : false,
    "close_approach_data" : [ {
      "close_approach_date" : "2008-11-15",
      "epoch_date_close_approach" : 1226736000000,
      "relative_velocity" : {
        "kilometers_per_second" : "10.199337608",
        "kilometers_per_hour" : "36717.6153886996",
        "miles_per_hour" : "22814.8982952728"
      },
      "miss_distance" : {
        "astronomical" : "0.0557908311",
        "lunar" : "21.7026329041",
        "kilometers" : "8346189.5",
        "miles" : "5186081.5"
      },
      "orbiting_body" : "Earth"
    } ],
    "orbital_data" : {
      "orbit_id" : "6",
      "orbit_determination_date" : "2017-04-06 09:02:08",
      "first_observation_date" : "2008-11-21",
      "last_observation_date" : "2008-11-21",
      "data_arc_in_days" : null,
      "observations_used" : 13,
      "orbit_uncertainty" : "9",
      "minimum_orbit_intersection" : ".0546869",
      "jupiter_tisserand_invariant" : "4.190",
      "epoch_osculation" : "2454791.5",
      "eccentricity" : ".3878994611266059",
      "semi_major_axis" : "1.632102919679979",
      "inclination" : "13.98498188705362",
      "ascending_node_longitude" : "59.07687118699286",
      "orbital_period" : "761.5873809163825",
      "perihelion_distance" : ".9990110766329553",
      "perihelion_argument" : "324.0859524823657",
      "aphelion_distance" : "2.265194762727003",
      "perihelion_time" : "2454760.047080946512",
      "mean_anomaly" : "14.8676975787482",
      "mean_motion" : ".4726969078280011",
      "equinox" : "J2000",
      "orbit_class" : {
        "orbit_class_type" : "APO",
        "orbit_class_range" : "a (semi-major axis) > 1.0 AU; q (perihelion) < 1.017 AU",
        "orbit_class_description" : "Near-Earth asteroid orbits which cross the Earth’s orbit similar to that of 1862 Apollo"
      }
    },
    "is_sentry_object" : false
  }, {
    "links" : {
      "self" : "https://api.nasa.gov/neo/rest/v1/neo/3439811?api_key=jqAGvNAwUIBu4fl9FSOjdm3V4F7hIglRzI6pdX9d"
    },
    "neo_reference_id" : "3439811",
    "name" : "(2008 WH14)",
    "designation" : "2008 WH14",
    "nasa_jpl_url" : "http://ssd.jpl.nasa.gov/sbdb.cgi?sstr=3439811",
    "absolute_magnitude_h" : 26.3,
    "estimated_diameter" : {
      "kilometers" : {
        "estimated_diameter_min" : 0.0146067964,
        "estimated_diameter_max" : 0.0326617897
      },
      "meters" : {
        "estimated_diameter_min" : 14.6067964271,
        "estimated_diameter_max" : 32.6617897446
      },
      "miles" : {
        "estimated_diameter_min" : 0.0090762397,
        "estimated_diameter_max" : 0.020295089
      },
      "feet" : {
        "estimated_diameter_min" : 47.92256199,
        "estimated_diameter_max" : 107.1581062656
      }
    },
    "is_potentially_hazardous_asteroid" : false,
    "close_approach_data" : [ {
      "close_approach_date" : "2008-11-19",
      "epoch_date_close_approach" : 1227081600000,
      "relative_velocity" : {
        "kilometers_per_second" : "4.5513460378",
        "kilometers_per_hour" : "16384.8457359004",
        "miles_per_hour" : "10180.9059518432"
      },
      "miss_distance" : {
        "astronomical" : "0.0487919829",
        "lunar" : "18.9800815582",
        "kilometers" : "7299176.5",
        "miles" : "4535498"
      },
      "orbiting_body" : "Earth"
    } ],
    "orbital_data" : {
      "orbit_id" : "6",
      "orbit_determination_date" : "2017-04-06 09:02:07",
      "first_observation_date" : "2008-11-21",
      "last_observation_date" : "2008-11-21",
      "data_arc_in_days" : null,
      "observations_used" : 16,
      "orbit_uncertainty" : "9",
      "minimum_orbit_intersection" : ".0487334",
      "jupiter_tisserand_invariant" : "4.731",
      "epoch_osculation" : "2454791.5",
      "eccentricity" : ".2562751179473103",
      "semi_major_axis" : "1.392273993510598",
      "inclination" : "6.569458428940705",
      "ascending_node_longitude" : "61.77482011614669",
      "orbital_period" : "600.0473102250726",
      "perihelion_distance" : "1.035468811608697",
      "perihelion_argument" : "351.1224715136486",
      "aphelion_distance" : "1.749079175412499",
      "perihelion_time" : "2454785.809536664450",
      "mean_anomaly" : "3.414008805455023",
      "mean_motion" : ".5999526935050623",
      "equinox" : "J2000",
      "orbit_class" : {
        "orbit_class_type" : "AMO",
        "orbit_class_range" : "1.017 AU < q (perihelion) < 1.3 AU",
        "orbit_class_description" : "Near-Earth asteroid orbits similar to that of 1221 Amor"
      }
    },
    "is_sentry_object" : false
  }, {
    "links" : {
      "self" : "https://api.nasa.gov/neo/rest/v1/neo/3439812?api_key=jqAGvNAwUIBu4fl9FSOjdm3V4F7hIglRzI6pdX9d"
    },
    "neo_reference_id" : "3439812",
    "name" : "(2008 WJ14)",
    "designation" : "2008 WJ14",
    "nasa_jpl_url" : "http://ssd.jpl.nasa.gov/sbdb.cgi?sstr=3439812",
    "absolute_magnitude_h" : 26.3,
    "estimated_diameter" : {
      "kilometers" : {
        "estimated_diameter_min" : 0.0146067964,
        "estimated_diameter_max" : 0.0326617897
      },
      "meters" : {
        "estimated_diameter_min" : 14.6067964271,
        "estimated_diameter_max" : 32.6617897446
      },
      "miles" : {
        "estimated_diameter_min" : 0.0090762397,
        "estimated_diameter_max" : 0.020295089
      },
      "feet" : {
        "estimated_diameter_min" : 47.92256199,
        "estimated_diameter_max" : 107.1581062656
      }
    },
    "is_potentially_hazardous_asteroid" : false,
    "close_approach_data" : [ ],
    "orbital_data" : {
      "orbit_id" : "6",
      "orbit_determination_date" : "2017-04-06 09:02:06",
      "first_observation_date" : "2008-11-21",
      "last_observation_date" : "2008-11-21",
      "data_arc_in_days" : null,
      "observations_used" : 12,
      "orbit_uncertainty" : "9",
      "minimum_orbit_intersection" : ".056676",
      "jupiter_tisserand_invariant" : "2.543",
      "epoch_osculation" : "2454791.5",
      "eccentricity" : ".7210906609657335",
      "semi_major_axis" : "3.746494057880761",
      "inclination" : "10.93409950593293",
      "ascending_node_longitude" : "237.3302935263161",
      "orbital_period" : "2648.71968422696",
      "perihelion_distance" : "1.04493218137933",
      "perihelion_argument" : "178.6598555463624",
      "aphelion_distance" : "6.448055934382191",
      "perihelion_time" : "2454789.159315606510",
      "mean_anomaly" : ".3181334690395257",
      "mean_motion" : ".1359147221745617",
      "equinox" : "J2000",
      "orbit_class" : {
        "orbit_class_type" : "AMO",
        "orbit_class_range" : "1.017 AU < q (perihelion) < 1.3 AU",
        "orbit_class_description" : "Near-Earth asteroid orbits similar to that of 1221 Amor"
      }
    },
    "is_sentry_object" : true,
    "sentry_data" : "https://api.nasa.gov/neo/rest/v1/neo/sentry/3439812?api_key=jqAGvNAwUIBu4fl9FSOjdm3V4F7hIglRzI6pdX9d"
  } ]
}